[
    {
        "Altitude(m)": 607897.6429447373,
        "Argument of Periapsis(deg)": 0.0,
        "Eccentricity": 0.0,
        "Inclination(deg)": 60.0,
        "Latitude(deg)": -14.293094135325969,
        "Longitude(deg)": -88.381244713565,
        "Mean Anomaly(deg)": -16.36360000000006,
        "RAAN(deg)": 20.0,
        "Satellite Name": "Test1 109",
        "Satellite Number": 109,
        "Semi-Major Axis(m)": 6980739.136638005,
        "Time(s)": 0
    },
    {
        "Altitude(m)": 607750.8432555989,
        "Argument of Periapsis(deg)": 0.00010418945913296404,
        "Eccentricity": 0.0,
        "Inclination(deg)": 60.0,
        "Latitude(deg)": -13.758935538628808,
        "Longitude(deg)": -88.0941756001411,
        "Mean Anomaly(deg)": -15.743493854538167,
        "RAAN(deg)": 19.99957995086026,
        "Satellite Name": "Test1 109",
        "Satellite Number": 109,
        "Semi-Major Axis(m)": 6980739.136638005,
        "Time(s)": 10
    }
]